CIC_OEM_VERS = 2.0
CREATION_DATE = 2025-01-28T14:22:26.036727
ORIGINATOR = ISAE-SUPAERO


META_START
OBJECT_NAME = Sat
OBJECT_ID = Sat
CENTER_NAME = Earth
REF_FRAME = EME2000
TIME_SYSTEM = UTC
START_TIME = 2025-01-28T00:00:00.000
USEABLE_START_TIME = 2025-01-28T00:00:00.000
USEABLE_STOP_TIME = 2025-01-28T23:55:00.000
STOP_TIME = 2025-01-28T23:55:00.000
INTERPOLATION = lagrange
INTERPOLATION_DEGREE = 5
META_STOP


60703 0.0 -1341.6919 3881.0474 -5512.2898 3.5393839 -5.072633 -4.4408242
60703 420.0 234.32041 1414.7866000000001 -6725.279 3.8292788 -6.4570454 -1.2351865
60703 840.0 1760.9091 -1350.4384 -6513.7649 3.309683 -6.4739912 2.2231572
60703 1260.0 2916.0642000000003 -3830.8317 -4924.372 2.0922466 -5.125262 5.209133
60703 1680.0 3455.9427 -5502.903 -2293.1639 0.43206662 -2.6933687 7.0948652
60703 2100.0 3265.9605 -6012.807400000001 823.61236 -1.3205399 0.30908471 7.4790374
60703 2520.0 2386.0621 -5252.5981 3766.0078 -2.7936275 3.2450191 6.2796751
60703 2940.0 1002.587 -3383.9047 5911.5160000000005 -3.6758481 5.4933004 3.7533836000000003
60703 3360.0 -592.3231800000001 -801.6544200000001 6807.1319 -3.7825680000000004 6.5824075 0.43427334
60703 3780.0 -2062.1483000000003 1949.5567 6262.5216 -3.090411 6.282871 -2.9825013
60703 4200.0 -3095.7852000000003 4288.4592999999995 4389.397599999999 -1.7400983 4.649424 -5.7776645
60703 4620.0 -3471.6240000000003 5715.760200000001 1582.409 -0.015581128 2.0221476000000003 -7.3493705
60703 5040.0 -3108.1094 5925.7735 -1562.618 1.7153204000000002 -1.0404317 -7.3545099
60703 5460.0 -2082.5641 4873.617700000001 -4374.059700000001 3.0791595000000003 -3.8778587000000004 -5.7906288
60703 5880.0 -613.70924 2784.837 -6254.8405999999995 3.7856271 -5.884835 -2.9964787999999998
60703 6300.0 984.72222 106.45657000000001 -6805.378900000001 3.6889732 -6.639471400000001 0.42081473
60703 6720.0 2375.2288 -2594.5452999999998 -5914.4974 2.8135038 -5.9912216 3.7447
60703 7140.0 3264.1727 -4747.6327 -3771.3441000000003 1.3432249 -4.0769063 6.277118300000001
60703 7560.0 3463.2516 -5897.2843 -828.97996 -0.4125978 -1.2985361 7.4811427
60703 7980.0 2929.8557 -5799.598 2289.0002000000004 -2.0815523 1.7549698 7.0989849000000005
60703 8400.0 1777.0618000000002 -4475.9287 4922.1223 -3.308675 4.433794799999999 5.214002000000001
60703 8820.0 249.18493 -2207.5582000000004 6513.6781 -3.8361562 6.173681800000001 2.2287018
60703 9240.0 -1331.244 526.38186 6727.7714000000005 -3.5544158 6.6112421999999995 -1.228304
60703 9660.0 -2630.4458 3148.8927000000003 5517.4484 -2.5204751 5.6517974 -4.432753
60703 10080.0 -3375.2165 5107.5446 3141.3079 -0.95004029 3.4907239 -6.6963569
60703 10500.0 -3403.2212999999997 5981.2488 97.146874 0.82203682 0.5913413200000001 -7.5440511
60703 10920.0 -2708.9726 5585.6562 -2967.9874 2.4225266000000003 -2.4370287 -6.7915151
60703 11340.0 -1440.3019 4006.0504 -5403.3612 3.5077359 -4.945089 -4.5976658
60703 11760.0 132.93497 1579.3441 -6693.0258 3.8488529 -6.4020872 -1.4337773999999999
60703 12180.0 1678.1463 -1180.9748 -6565.4187 3.3769798 -6.5059025 2.0303858
60703 12600.0 2868.8966 -3691.7727000000004 -5047.5715 2.1909603000000004 -5.2348538 5.0678029
60703 13020.0 3452.7966 -5421.6135 -2459.1776 0.53847834 -2.8524283 7.035326100000001
60703 13440.0 3304.7539 -6002.0505 651.7979799999999 -1.2305058 0.13815557 7.509946
60703 13860.0 2456.4136000000003 -5310.474099999999 3623.957 -2.73731 3.0971566 6.3879709
60703 14280.0 1087.7012 -3494.0639 5827.0339 -3.6624947000000003 5.395503 3.9143616000000003
60703 14700.0 -510.87246999999996 -939.4106400000001 6795.9332 -3.8128717 6.550559000000001 0.6168838
60703 15120.0 -2001.672 1813.4898 6326.8468 -3.1584602 6.3227705 -2.8108492000000003
60703 15540.0 -3069.5982000000004 4183.0960000000005 4517.8369 -1.8349414 4.757493800000001 -5.648973600000001
60703 15960.0 -3490.4528999999998 5671.6264 1751.0031000000001 -0.11739184000000001 2.1755477 -7.288364400000001
60703 16380.0 -3168.8804 5953.049900000001 -1386.5125 1.6228955 -0.862533 -7.3830992
60703 16800.0 -2175.9337 4973.2665 -4229.648 3.019959 -3.7185533 -5.9110461999999995
60703 17220.0 -722.43651 2940.9046000000003 -6175.3240000000005 3.7766185 -5.784596 -3.1872764000000005
60703 17640.0 883.81876 286.794 -6812.0784 3.7344988 -6.626469500000001 0.20983835
60703 18060.0 2303.1665000000003 -2427.8482000000004 -6004.8165 2.9023622999999996 -6.0673912 3.5655118000000003
60703 18480.0 3236.0896000000002 -4630.0392 -3924.8224 1.4514323999999998 -4.2174421 6.169048399999999
60703 18900.0 3483.6047000000003 -5851.0171 -1013.3749 -0.30591525 -1.4748202000000001 7.4585016
60703 19320.0 2990.7147999999997 -5828.5294 2114.6812000000004 -1.9974911 1.5767043 7.1708172999999995
60703 19740.0 1860.9479 -4565.2581 4792.843900000001 -3.2697712 4.2990732 5.366275300000001
60703 20160.0 335.69664 -2332.4612 6452.0448 -3.8499346 6.1145612 2.4109245
60703 20580.0 -1259.9796000000001 394.02085999999997 6737.607 -3.6090514 6.6265291 -1.0619368999999999
60703 21000.0 -2589.1762000000003 3036.6274 5596.0558 -2.5971946 5.721421 -4.3017823
60703 21420.0 -3366.6577 5031.9403 3259.5778 -1.0369956 3.6074836 -6.627181800000001
60703 21840.0 -3429.0283 5958.495900000001 228.51814000000002 0.7454696300000001 0.7246971 -7.5446689
60703 22260.0 -2763.0112999999997 5619.4023 -2851.4345 2.3683110000000003 -2.3096574000000003 -6.8554304
60703 22680.0 -1509.7575 4086.5017000000003 -5325.5784 3.4873474 -4.8512033 -4.7093093
60703 23100.0 62.48201400000001 1689.5814 -6669.144700000001 3.8646864 -6.356842400000001 -1.5743282
60703 23520.0 1621.6055000000001 -1063.9814 -6601.6325 3.426326 -6.519764400000001 1.8899113
60703 23940.0 2838.5170000000003 -3592.9515 -5137.4547999999995 2.263977 -5.306095099999999 4.9575363
60703 24360.0 3455.3134 -5362.2214 -2584.5773 0.6197338200000001 -2.9665671000000002 6.9802424
60703 24780.0 3341.8826000000004 -5998.2403 515.7633900000001 -1.1566865 0.0031569797 7.5194342
60703 25200.0 2517.3494 -5358.2186 3506.9964 -2.6900982 2.9738634999999998 6.4683867
60703 25620.0 1160.8038999999999 -3585.7180000000003 5754.552 -3.6515725000000003 5.3112212 4.0422282
60703 26040.0 -441.13626 -1055.2738000000002 6782.3305 -3.8393863 6.5213621999999996 0.7644520300000001
60703 26460.0 -1949.9805000000001 1698.0271 6374.092900000001 -3.2163117000000003 6.353776 -2.6735704
60703 26880.0 -3046.7837000000004 4092.4154 4615.6544 -1.9121999 4.842447600000001 -5.5496385
60703 27300.0 -3498.5013 5620.371700000001 1877.0924 -0.19998953 2.3016244 -7.253076699999999
60703 27720.0 -3208.4085 5956.4535000000005 -1260.0572 1.5565473 -0.7303491400000001 -7.415099100000001
60703 28140.0 -2236.2697000000003 5025.551 -4125.783 2.9839083 -3.6075748 -6.005732500000001
60703 28560.0 -789.3885799999999 3029.3442999999997 -6119.064 3.7774284 -5.7193589000000005 -3.3137794
60703 28980.0 824.26946 391.98602000000005 -6811.759400000001 3.7684132 -6.613354 0.07401643799999999
60703 29400.0 2263.5627999999997 -2328.418 -6059.098900000001 2.9618165 -6.1075273 3.4456464
60703 29820.0 3223.538 -4555.7244 -4020.0665 1.5266589 -4.306906 6.0890968999999995
60703 30240.0 3500.0409 -5817.066400000001 -1126.4923000000001 -0.23393509 -1.5907419 7.4404244
60703 30660.0 3034.1579 -5844.634099999999 2006.8493 -1.944262 1.4615993 7.2094101
60703 31080.0 1925.4738 -4634.111400000001 4714.165599999999 -3.2395574000000003 4.1981041999999995 5.449426000000001
60703 31500.0 409.86926 -2444.4218 6422.972 -3.8476776 6.040845099999999 2.5424341
60703 31920.0 -1192.2115000000001 260.45608 6774.753 -3.6444236 6.6084316 -0.89722024
60703 32340.0 -2543.0969 2910.3515 5695.5434000000005 -2.6725198 5.7832828 -4.1505343
60703 32760.0 -3356.9352000000003 4945.4875999999995 3410.9015 -1.1326859999999999 3.7329322000000005 -6.533563600000001
60703 33180.0 -3460.1818 5933.5331 403.22201 0.65153746 0.88546079 -7.533878700000001
60703 33600.0 -2828.942 5662.2465999999995 -2690.8074 2.3001739 -2.1542277 -6.932408000000001
60703 34020.0 -1597.1054 4188.9144 -5212.1576 3.4594636999999997 -4.734334700000001 -4.8567925999999995
60703 34440.0 -26.727573 1827.7094 -6625.762900000001 3.883982 -6.3070426 -1.7538015
60703 34860.0 1549.4438 -920.50615 -6633.3334 3.4864756000000003 -6.5440307 1.7181408
60703 35280.0 2797.7875 -3473.9376 -5233.5916 2.3506331 -5.3957516 4.8274346
60703 35700.0 3453.4552000000003 -5291.3848 -2722.3427 0.71484152 -3.1020196 6.9149947
60703 36120.0 3376.7108 -5986.6286 367.77745000000004 -1.0736451999999999 -0.1489304 7.5332707
60703 36540.0 2583.8154 -5412.2002 3379.5895 -2.6324432000000004 2.8317387 6.5515659
60703 36960.0 1243.7049 -3691.8952999999997 5674.8998 -3.6316317 5.2076535 4.1836084
60703 37380.0 -358.76287 -1192.7958999999998 6769.6681 -3.8620527000000004 6.4787045 0.9367309
60703 37800.0 -1885.6875 1557.6773 6434.192400000001 -3.2784959 6.383765500000001 -2.5057627000000005
60703 38220.0 -3014.994 3979.5945 4738.6795 -2.0019377 4.9412564 -5.4238936
60703 38640.0 -3507.3513 5560.7828 2039.3278 -0.29797031 2.4485506 -7.1986497
60703 39060.0 -3256.4625 5963.4442 -1092.8442 1.4717926000000001 -0.56683646 -7.4467007
60703 39480.0 -2315.0083 5101.518599999999 -3992.5984 2.9302599000000003 -3.463219 -6.111775
60703 39900.0 -882.8992099999999 3158.4631 -6044.0838 3.7661160000000002 -5.6219470000000005 -3.4815046
60703 40320.0 736.09581 547.1032299999999 -6813.5091 3.8045483 -6.5890291 -0.11675687000000001
60703 40740.0 2199.492 -2179.9131 -6138.5251 3.0383822 -6.1627954 3.2733371000000004
60703 41160.0 3197.4477 -4445.6097 -4160.934 1.6272149999999999 -4.4302351 5.973755100000001
60703 41580.0 3517.4010000000003 -5768.492 -1299.083 -0.13166003 -1.7546708000000002 7.4077728
60703 42000.0 3090.7678 -5866.9828 1839.2861 -1.8629566 1.2937068 7.2659636
60703 42420.0 2006.4137 -4717.0402 4585.4269 -3.1988419 4.0657692 5.5841351
60703 42840.0 495.07185 -2563.969 6355.6631 -3.8581349 5.9801222 2.7094364
60703 43260.0 -1119.9801000000002 129.60942 6778.098400000001 -3.6948173000000004 6.6165374 -0.73347651
